[{"OBJECT_NAME":"STARLINK-2615","OBJECT_ID":"2021-044AS","EPOCH":"2026-03-09T07:59:46.020192","MEAN_MOTION":15.30189225,"ECCENTRICITY":9.728e-5,"INCLINATION":53.1594,"RA_OF_ASC_NODE":105.3522,"ARG_OF_PERICENTER":93.9178,"MEAN_ANOMALY":266.1934,"EPHEMERIS_TYPE":0,"CLASSIFICATION_TYPE":"U","NORAD_CAT_ID":48678,"ELEMENT_SET_NO":999,"REV_AT_EPOCH":26391,"BSTAR":-9.6376981e-5,"MEAN_MOTION_DOT":-3.211e-5,"MEAN_MOTION_DDOT":0},{"OBJECT_NAME":"AL MUNTHER","OBJECT_ID":"2025-052AG","EPOCH":"2026-03-09T15:29:23.207136","MEAN_MOTION":15.28381521,"ECCENTRICITY":0.0008027,"INCLINATION":97.4001,"RA_OF_ASC_NODE":323.9152,"ARG_OF_PERICENTER":130.7043,"MEAN_ANOMALY":229.4895,"EPHEMERIS_TYPE":0,"CLASSIFICATION_TYPE":"U","NORAD_CAT_ID":63240,"ELEMENT_SET_NO":999,"REV_AT_EPOCH":5479,"BSTAR":0.00065015,"MEAN_MOTION_DOT":0.00017933,"MEAN_MOTION_DDOT":0}]
